{
  "type": "FeatureCollection",
  "features": [
    {
      "type": "Feature",
      "properties": {
        "norad_id": 36083,
        "name": "IRIDIUM 33 DEB",
        "group": "iridium-33-debris",
        "lat": -62.281573376618724,
        "lon": -134.36483171935024,
        "alt_km": 738.7563761081956,
        "timestamp": "2025-12-02T07:10:09.501673+00:00",
        "meta_object_name": "IRIDIUM 33 DEB",
        "meta_object_id": "1997-051VQ",
        "meta_epoch": "2025-11-30T10:46:50.880000",
        "meta_mean_motion": 14.43133955,
        "meta_eccentricity": 0.00245074,
        "meta_inclination": 86.345,
        "meta_ra_of_asc_node": 39.4431,
        "meta_arg_of_pericenter": 266.1752,
        "meta_mean_anomaly": 93.6646,
        "meta_ephemeris_type": 0,
        "meta_classification_type": "U",
        "meta_norad_cat_id": 36083,
        "meta_element_set_no": 999,
        "meta_rev_at_epoch": 85272,
        "meta_bstar": 0.00060468289,
        "meta_mean_motion_dot": 2.056e-05,
        "meta_mean_motion_ddot": 0,
        "tle_line1": "1 36083U 97051VQ  25334.44920000  .00002056  00000+0  60468-3 0  9997",
        "tle_line2": "2 36083  86.3450  39.4431 0024507 266.1752  93.6646 14.43133955852725"
      },
      "geometry": {
        "type": "Point",
        "coordinates": [
          -134.36483171935024,
          -62.281573376618724
        ]
      }
    },
    {
      "type": "Feature",
      "properties": {
        "norad_id": 36390,
        "name": "IRIDIUM 33 DEB",
        "group": "iridium-33-debris",
        "lat": 3.226556568883509,
        "lon": -55.61281635465458,
        "alt_km": 672.3947970687141,
        "timestamp": "2025-12-02T07:10:09.501684+00:00",
        "meta_object_name": "IRIDIUM 33 DEB",
        "meta_object_id": "1997-051VU",
        "meta_epoch": "2025-11-30T04:37:26.668128",
        "meta_mean_motion": 14.73329322,
        "meta_eccentricity": 0.00285998,
        "meta_inclination": 86.289,
        "meta_ra_of_asc_node": 305.1428,
        "meta_arg_of_pericenter": 206.0853,
        "meta_mean_anomaly": 153.8925,
        "meta_ephemeris_type": 0,
        "meta_classification_type": "U",
        "meta_norad_cat_id": 36390,
        "meta_element_set_no": 999,
        "meta_rev_at_epoch": 66077,
        "meta_bstar": 0.001268982,
        "meta_mean_motion_dot": 8.29e-05,
        "meta_mean_motion_ddot": 0,
        "tle_line1": "1 36390U 97051VU  25334.19266977  .00008290  00000+0  12690-2 0  9995",
        "tle_line2": "2 36390  86.2890 305.1428 0028599 206.0853 153.8925 14.73329322660771"
      },
      "geometry": {
        "type": "Point",
        "coordinates": [
          -55.61281635465458,
          3.226556568883509
        ]
      }
    },
    {
      "type": "Feature",
      "properties": {
        "norad_id": 36483,
        "name": "IRIDIUM 33 DEB",
        "group": "iridium-33-debris",
        "lat": -51.54650125345151,
        "lon": 52.38648108339983,
        "alt_km": 752.657669976079,
        "timestamp": "2025-12-02T07:10:09.501694+00:00",
        "meta_object_name": "IRIDIUM 33 DEB",
        "meta_object_id": "1997-051VZ",
        "meta_epoch": "2025-11-22T13:11:17.919744",
        "meta_mean_motion": 14.45699989,
        "meta_eccentricity": 0.0009342,
        "meta_inclination": 86.3802,
        "meta_ra_of_asc_node": 61.1291,
        "meta_arg_of_pericenter": 185.7965,
        "meta_mean_anomaly": 174.3131,
        "meta_ephemeris_type": 0,
        "meta_classification_type": "U",
        "meta_norad_cat_id": 36483,
        "meta_element_set_no": 999,
        "meta_rev_at_epoch": 64854,
        "meta_bstar": 0.0005707,
        "meta_mean_motion_dot": 2.04e-05,
        "meta_mean_motion_ddot": 0,
        "tle_line1": "1 36483U 97051VZ  25326.54951296  .00002040  00000+0  57070-3 0  9992",
        "tle_line2": "2 36483  86.3802  61.1291 0009342 185.7965 174.3131 14.45699989648543"
      },
      "geometry": {
        "type": "Point",
        "coordinates": [
          52.38648108339983,
          -51.54650125345151
        ]
      }
    },
    {
      "type": "Feature",
      "properties": {
        "norad_id": 36490,
        "name": "IRIDIUM 33 DEB",
        "group": "iridium-33-debris",
        "lat": 29.335396922698227,
        "lon": -166.87514760838698,
        "alt_km": 638.4814359155243,
        "timestamp": "2025-12-02T07:10:09.501704+00:00",
        "meta_object_name": "IRIDIUM 33 DEB",
        "meta_object_id": "1997-051WG",
        "meta_epoch": "2025-11-30T20:19:01.149312",
        "meta_mean_motion": 14.75798631,
        "meta_eccentricity": 0.00055619,
        "meta_inclination": 86.3661,
        "meta_ra_of_asc_node": 15.8259,
        "meta_arg_of_pericenter": 109.7854,
        "meta_mean_anomaly": 250.3965,
        "meta_ephemeris_type": 0,
        "meta_classification_type": "U",
        "meta_norad_cat_id": 36490,
        "meta_element_set_no": 999,
        "meta_rev_at_epoch": 86309,
        "meta_bstar": 0.0016181183,
        "meta_mean_motion_dot": 0.00011119,
        "meta_mean_motion_ddot": 0,
        "tle_line1": "1 36490U 97051WG  25334.84654108  .00011119  00000+0  16181-2 0  9998",
        "tle_line2": "2 36490  86.3661  15.8259 0005561 109.7854 250.3965 14.75798631863092"
      },
      "geometry": {
        "type": "Point",
        "coordinates": [
          -166.87514760838698,
          29.335396922698227
        ]
      }
    },
    {
      "type": "Feature",
      "properties": {
        "norad_id": 36493,
        "name": "IRIDIUM 33 DEB",
        "group": "iridium-33-debris",
        "lat": 57.763313109163676,
        "lon": -169.4765955137686,
        "alt_km": 670.7006221005513,
        "timestamp": "2025-12-02T07:10:09.501715+00:00",
        "meta_object_name": "IRIDIUM 33 DEB",
        "meta_object_id": "1997-051WK",
        "meta_epoch": "2025-11-29T09:45:52.591680",
        "meta_mean_motion": 14.64969461,
        "meta_eccentricity": 0.00117036,
        "meta_inclination": 86.359,
        "meta_ra_of_asc_node": 17.6018,
        "meta_arg_of_pericenter": 48.0633,
        "meta_mean_anomaly": 312.1576,
        "meta_ephemeris_type": 0,
        "meta_classification_type": "U",
        "meta_norad_cat_id": 36493,
        "meta_element_set_no": 999,
        "meta_rev_at_epoch": 74323,
        "meta_bstar": 0.0011558423,
        "meta_mean_motion_dot": 6.216e-05,
        "meta_mean_motion_ddot": 0,
        "tle_line1": "1 36493U 97051WK  25333.40685870  .00006216  00000+0  11558-2 0  9997",
        "tle_line2": "2 36493  86.3590  17.6018 0011703  48.0633 312.1576 14.64969461743231"
      },
      "geometry": {
        "type": "Point",
        "coordinates": [
          -169.4765955137686,
          57.763313109163676
        ]
      }
    },
    {
      "type": "Feature",
      "properties": {
        "norad_id": 37548,
        "name": "IRIDIUM 33 DEB",
        "group": "iridium-33-debris",
        "lat": 69.41078869432752,
        "lon": -141.86610009773588,
        "alt_km": 722.3625247281607,
        "timestamp": "2025-12-02T07:10:09.501724+00:00",
        "meta_object_name": "IRIDIUM 33 DEB",
        "meta_object_id": "1997-051XH",
        "meta_epoch": "2025-11-29T22:23:36.250944",
        "meta_mean_motion": 14.5113469,
        "meta_eccentricity": 0.00243457,
        "meta_inclination": 86.3524,
        "meta_ra_of_asc_node": 48.9393,
        "meta_arg_of_pericenter": 232.6782,
        "meta_mean_anomaly": 127.2204,
        "meta_ephemeris_type": 0,
        "meta_classification_type": "U",
        "meta_norad_cat_id": 37548,
        "meta_element_set_no": 999,
        "meta_rev_at_epoch": 65346,
        "meta_bstar": 0.0012745087,
        "meta_mean_motion_dot": 5.093e-05,
        "meta_mean_motion_ddot": 0,
        "tle_line1": "1 37548U 97051XH  25333.93305846  .00005093  00000+0  12745-2 0  9990",
        "tle_line2": "2 37548  86.3524  48.9393 0024345 232.6782 127.2204 14.51134690653467"
      },
      "geometry": {
        "type": "Point",
        "coordinates": [
          -141.86610009773588,
          69.41078869432752
        ]
      }
    },
    {
      "type": "Feature",
      "properties": {
        "norad_id": 37550,
        "name": "IRIDIUM 33 DEB",
        "group": "iridium-33-debris",
        "lat": -86.22064858748259,
        "lon": -44.97565168661573,
        "alt_km": 680.8541685172004,
        "timestamp": "2025-12-02T07:10:09.501734+00:00",
        "meta_object_name": "IRIDIUM 33 DEB",
        "meta_object_id": "1997-051XK",
        "meta_epoch": "2025-12-01T10:17:32.492256",
        "meta_mean_motion": 14.66958093,
        "meta_eccentricity": 0.00051706,
        "meta_inclination": 86.3787,
        "meta_ra_of_asc_node": 28.8861,
        "meta_arg_of_pericenter": 137.4218,
        "meta_mean_anomaly": 222.7397,
        "meta_ephemeris_type": 0,
        "meta_classification_type": "U",
        "meta_norad_cat_id": 37550,
        "meta_element_set_no": 999,
        "meta_rev_at_epoch": 86167,
        "meta_bstar": 0.0016356222,
        "meta_mean_motion_dot": 9.181e-05,
        "meta_mean_motion_ddot": 0,
        "tle_line1": "1 37550U 97051XK  25335.42884829  .00009181  00000+0  16356-2 0  9996",
        "tle_line2": "2 37550  86.3787  28.8861 0005170 137.4218 222.7397 14.66958093861674"
      },
      "geometry": {
        "type": "Point",
        "coordinates": [
          -44.97565168661573,
          -86.22064858748259
        ]
      }
    }
  ]
}